start=new Date('2022-12-07T00:00:00.000Z').valueOf();
sats=[{"LAUNCH_DATE":"2022-10-05","EPHEMERIS_TYPE":"0","PERIAPSIS":"396.799","OBJECT_ID":"2022-125BD","GP_ID":"219699389","REF_FRAME":"TEME","MEAN_MOTION_DDOT":"0.0000000000000","MEAN_ELEMENT_THEORY":"SGP4","NORAD_CAT_ID":"54015","OBJECT_NAME":"STARLINK-5055","ARG_OF_PERICENTER":"55.5549","CLASSIFICATION_TYPE":"U","MEAN_MOTION":"15.56543748","ECCENTRICITY":"0.00012860","EPOCH":"2022-12-06T22:00:00.999936","APOAPSIS":"398.542","RCS_SIZE":"LARGE","DECAY_DATE":null,"TLE_LINE2":"2 54015  53.2165 145.4817 0001286  55.5549 207.2257 15.56543748  1306","TIME_SYSTEM":"UTC","OBJECT_TYPE":"PAYLOAD","INCLINATION":"53.2165","CENTER_NAME":"EARTH","COUNTRY_CODE":"US","MEAN_MOTION_DOT":"-0.00921887","SEMIMAJOR_AXIS":"6775.806","MEAN_ANOMALY":"207.2257","SITE":"AFWTR","REV_AT_EPOCH":"130","RA_OF_ASC_NODE":"145.4817","BSTAR":"-0.01405900000000","TLE_LINE1":"1 54015U 22125BD  22340.91667824 -.00921887  00000-0 -14059-1 0  9998","ELEMENT_SET_NO":"999","FILE":"3683274","PERIOD":"92.513"},{"APOAPSIS":"541.006","EPOCH":"2022-12-06T22:00:00.999936","ECCENTRICITY":"0.00018020","CLASSIFICATION_TYPE":"U","MEAN_MOTION":"15.08835269","ARG_OF_PERICENTER":"55.1807","OBJECT_NAME":"STARLINK-5195","NORAD_CAT_ID":"54051","MEAN_ELEMENT_THEORY":"SGP4","REF_FRAME":"TEME","MEAN_MOTION_DDOT":"0.0000000000000","OBJECT_ID":"2022-136A","GP_ID":"219699393","PERIAPSIS":"538.513","EPHEMERIS_TYPE":"0","LAUNCH_DATE":"2022-10-20","PERIOD":"95.438","FILE":"3683274","BSTAR":"-0.00299130000000","TLE_LINE1":"1 54051U 22136A   22340.91667824 -.00047575  00000-0 -29913-2 0  9999","ELEMENT_SET_NO":"999","RA_OF_ASC_NODE":"280.9708","REV_AT_EPOCH":"130","SITE":"AFETR","MEAN_ANOMALY":"35.6349","SEMIMAJOR_AXIS":"6917.895","MEAN_MOTION_DOT":"-0.00047575","COUNTRY_CODE":"US","CENTER_NAME":"EARTH","INCLINATION":"53.2140","OBJECT_TYPE":"PAYLOAD","TIME_SYSTEM":"UTC","TLE_LINE2":"2 54051  53.2140 280.9708 0001802  55.1807  35.6349 15.08835269  1304","DECAY_DATE":null,"RCS_SIZE":"LARGE"},{"APOAPSIS":"351.820","ECCENTRICITY":"0.00030930","CLASSIFICATION_TYPE":"U","ARG_OF_PERICENTER":"8.1948","MEAN_MOTION":"15.73207402","EPOCH":"2022-12-06T13:08:39.306624","OBJECT_NAME":"STARLINK-5189","NORAD_CAT_ID":"54052","MEAN_ELEMENT_THEORY":"SGP4","REF_FRAME":"TEME","MEAN_MOTION_DDOT":"0.0000000000000","GP_ID":"219669497","OBJECT_ID":"2022-136B","LAUNCH_DATE":"2022-10-20","PERIAPSIS":"347.658","EPHEMERIS_TYPE":"0","TLE_LINE1":"1 54052U 22136B   22340.54767716  .00000676  00000-0  92530-5 0  9997","BSTAR":"0.00000925300000","ELEMENT_SET_NO":"999","PERIOD":"91.533","FILE":"3683104","REV_AT_EPOCH":"742","SITE":"AFETR","RA_OF_ASC_NODE":"275.1966","SEMIMAJOR_AXIS":"6727.874","MEAN_ANOMALY":"351.9123","MEAN_MOTION_DOT":"0.00000676","COUNTRY_CODE":"US","INCLINATION":"53.2186","CENTER_NAME":"EARTH","OBJECT_TYPE":"PAYLOAD","DECAY_DATE":null,"RCS_SIZE":"LARGE","TIME_SYSTEM":"UTC","TLE_LINE2":"2 54052  53.2186 275.1966 0003093   8.1948 351.9123 15.73207402  7422"},{"LAUNCH_DATE":"2022-10-20","EPHEMERIS_TYPE":"0","PERIAPSIS":"538.445","OBJECT_ID":"2022-136C","GP_ID":"219699196","MEAN_MOTION_DDOT":"0.0000000000000","REF_FRAME":"TEME","MEAN_ELEMENT_THEORY":"SGP4","NORAD_CAT_ID":"54053","OBJECT_NAME":"STARLINK-5176","ARG_OF_PERICENTER":"52.5501","CLASSIFICATION_TYPE":"U","MEAN_MOTION":"15.08875158","ECCENTRICITY":"0.00017250","EPOCH":"2022-12-06T22:00:00.999936","APOAPSIS":"540.831","DECAY_DATE":null,"RCS_SIZE":"LARGE","TLE_LINE2":"2 54053  53.2145 280.9306 0001725  52.5501  58.3151 15.08875158  1305","TIME_SYSTEM":"UTC","OBJECT_TYPE":"PAYLOAD","INCLINATION":"53.2145","CENTER_NAME":"EARTH","COUNTRY_CODE":"US","MEAN_MOTION_DOT":"-0.00084692","SEMIMAJOR_AXIS":"6917.773","MEAN_ANOMALY":"58.3151","SITE":"AFETR","REV_AT_EPOCH":"130","RA_OF_ASC_NODE":"280.9306","TLE_LINE1":"1 54053U 22136C   22340.91667824 -.00084692  00000-0 -53612-2 0  9995","ELEMENT_SET_NO":"999","BSTAR":"-0.00536120000000","FILE":"3683274","PERIOD":"95.435"},{"MEAN_ANOMALY":"97.9738","SEMIMAJOR_AXIS":"6917.804","MEAN_MOTION_DOT":"-0.00085166","PERIOD":"95.436","FILE":"3683274","TLE_LINE1":"1 54054U 22136D   22340.91667824 -.00085166  00000-0 -53932-2 0  9998","ELEMENT_SET_NO":"999","BSTAR":"-0.00539320000000","RA_OF_ASC_NODE":"280.8497","REV_AT_EPOCH":"130","SITE":"AFETR","OBJECT_TYPE":"PAYLOAD","TIME_SYSTEM":"UTC","TLE_LINE2":"2 54054  53.2137 280.8497 0001674  52.9044  97.9738 15.08865022  1305","RCS_SIZE":"LARGE","DECAY_DATE":null,"COUNTRY_CODE":"US","CENTER_NAME":"EARTH","INCLINATION":"53.2137","EPOCH":"2022-12-06T22:00:00.999936","ECCENTRICITY":"0.00016740","ARG_OF_PERICENTER":"52.9044","CLASSIFICATION_TYPE":"U","MEAN_MOTION":"15.08865022","OBJECT_NAME":"STARLINK-5163","APOAPSIS":"540.827","OBJECT_ID":"2022-136D","GP_ID":"219698819","PERIAPSIS":"538.511","EPHEMERIS_TYPE":"0","LAUNCH_DATE":"2022-10-20","NORAD_CAT_ID":"54054","MEAN_ELEMENT_THEORY":"SGP4","MEAN_MOTION_DDOT":"0.0000000000000","REF_FRAME":"TEME"},{"FILE":"3683373","PERIOD":"95.438","TLE_LINE1":"1 54055U 22136E   22341.08334491 -.00076990  00000-0 -48725-2 0  9998","ELEMENT_SET_NO":"999","BSTAR":"-0.00487250000000","RA_OF_ASC_NODE":"280.1452","SITE":"AFETR","REV_AT_EPOCH":"788","MEAN_ANOMALY":"268.2453","SEMIMAJOR_AXIS":"6917.905","MEAN_MOTION_DOT":"-0.00076990","COUNTRY_CODE":"US","CENTER_NAME":"EARTH","INCLINATION":"53.2135","OBJECT_TYPE":"PAYLOAD","TLE_LINE2":"2 54055  53.2135 280.1452 0001784  48.4323 268.2453 15.08831947  7885","TIME_SYSTEM":"UTC","DECAY_DATE":null,"RCS_SIZE":"LARGE","APOAPSIS":"541.004","EPOCH":"2022-12-07T02:00:01.000224","CLASSIFICATION_TYPE":"U","ARG_OF_PERICENTER":"48.4323","MEAN_MOTION":"15.08831947","ECCENTRICITY":"0.00017840","OBJECT_NAME":"STARLINK-5158","NORAD_CAT_ID":"54055","MEAN_MOTION_DDOT":"0.0000000000000","REF_FRAME":"TEME","MEAN_ELEMENT_THEORY":"SGP4","OBJECT_ID":"2022-136E","GP_ID":"219702102","EPHEMERIS_TYPE":"0","PERIAPSIS":"538.536","LAUNCH_DATE":"2022-10-20"},{"MEAN_MOTION_DDOT":"0.0000000000000","REF_FRAME":"TEME","MEAN_ELEMENT_THEORY":"SGP4","NORAD_CAT_ID":"54056","LAUNCH_DATE":"2022-10-20","EPHEMERIS_TYPE":"0","PERIAPSIS":"538.422","GP_ID":"219702100","OBJECT_ID":"2022-136F","APOAPSIS":"540.788","OBJECT_NAME":"STARLINK-5226","CLASSIFICATION_TYPE":"U","ARG_OF_PERICENTER":"38.1024","MEAN_MOTION":"15.08886013","ECCENTRICITY":"0.00017100","EPOCH":"2022-12-07T02:00:01.000224","INCLINATION":"53.2142","CENTER_NAME":"EARTH","COUNTRY_CODE":"US","DECAY_DATE":null,"RCS_SIZE":"LARGE","TLE_LINE2":"2 54056  53.2142 280.0756 0001710  38.1024 313.2915 15.08886013  7881","TIME_SYSTEM":"UTC","OBJECT_TYPE":"PAYLOAD","SITE":"AFETR","REV_AT_EPOCH":"788","RA_OF_ASC_NODE":"280.0756","BSTAR":"-0.00449070000000","TLE_LINE1":"1 54056U 22136F   22341.08334491 -.00071142  00000-0 -44907-2 0  9991","ELEMENT_SET_NO":"999","FILE":"3683373","PERIOD":"95.435","MEAN_MOTION_DOT":"-0.00071142","SEMIMAJOR_AXIS":"6917.740","MEAN_ANOMALY":"313.2915"},{"APOAPSIS":"373.331","ECCENTRICITY":"0.00041110","ARG_OF_PERICENTER":"103.3807","CLASSIFICATION_TYPE":"U","MEAN_MOTION":"15.65933629","EPOCH":"2022-12-06T19:12:49.109760","OBJECT_NAME":"STARLINK-5216","NORAD_CAT_ID":"54057","MEAN_ELEMENT_THEORY":"SGP4","MEAN_MOTION_DDOT":"0.0000000000000","REF_FRAME":"TEME","OBJECT_ID":"2022-136G","GP_ID":"219699572","LAUNCH_DATE":"2022-10-20","PERIAPSIS":"367.783","EPHEMERIS_TYPE":"0","TLE_LINE1":"1 54057U 22136G   22340.80056840  .00042134  00000-0  40892-3 0  9997","ELEMENT_SET_NO":"999","BSTAR":"0.00040892000000","PERIOD":"91.958","FILE":"3683274","REV_AT_EPOCH":"743","SITE":"AFETR","RA_OF_ASC_NODE":"276.1227","SEMIMAJOR_AXIS":"6748.692","MEAN_ANOMALY":"256.7668","MEAN_MOTION_DOT":"0.00042134","COUNTRY_CODE":"US","INCLINATION":"53.2140","CENTER_NAME":"EARTH","OBJECT_TYPE":"PAYLOAD","RCS_SIZE":"LARGE","DECAY_DATE":null,"TIME_SYSTEM":"UTC","TLE_LINE2":"2 54057  53.2140 276.1227 0004111 103.3807 256.7668 15.65933629  7437"},{"MEAN_ANOMALY":"152.9465","SEMIMAJOR_AXIS":"6917.713","MEAN_MOTION_DOT":"-0.00064431","FILE":"3683274","PERIOD":"95.434","ELEMENT_SET_NO":"999","TLE_LINE1":"1 54058U 22136H   22340.91667824 -.00064431  00000-0 -40606-2 0  9998","BSTAR":"-0.00406060000000","RA_OF_ASC_NODE":"280.7295","SITE":"AFETR","REV_AT_EPOCH":"130","OBJECT_TYPE":"PAYLOAD","TLE_LINE2":"2 54058  53.2160 280.7295 0001479  58.0077 152.9465 15.08894784  1302","TIME_SYSTEM":"UTC","RCS_SIZE":"LARGE","DECAY_DATE":null,"COUNTRY_CODE":"US","CENTER_NAME":"EARTH","INCLINATION":"53.2160","EPOCH":"2022-12-06T22:00:00.999936","CLASSIFICATION_TYPE":"U","ARG_OF_PERICENTER":"58.0077","MEAN_MOTION":"15.08894784","ECCENTRICITY":"0.00014790","OBJECT_NAME":"STARLINK-5167","APOAPSIS":"540.601","OBJECT_ID":"2022-136H","GP_ID":"219698409","EPHEMERIS_TYPE":"0","PERIAPSIS":"538.555","LAUNCH_DATE":"2022-10-20","NORAD_CAT_ID":"54058","MEAN_MOTION_DDOT":"0.0000000000000","REF_FRAME":"TEME","MEAN_ELEMENT_THEORY":"SGP4"},{"NORAD_CAT_ID":"54059","MEAN_ELEMENT_THEORY":"SGP4","REF_FRAME":"TEME","MEAN_MOTION_DDOT":"0.0000000000000","GP_ID":"219702111","OBJECT_ID":"2022-136J","LAUNCH_DATE":"2022-10-20","PERIAPSIS":"539.040","EPHEMERIS_TYPE":"0","APOAPSIS":"540.585","ECCENTRICITY":"0.00011160","CLASSIFICATION_TYPE":"U","ARG_OF_PERICENTER":"95.1358","MEAN_MOTION":"15.08818037","EPOCH":"2022-12-07T02:00:01.000224","OBJECT_NAME":"STARLINK-5173","COUNTRY_CODE":"US","INCLINATION":"53.2155","CENTER_NAME":"EARTH","OBJECT_TYPE":"PAYLOAD","DECAY_DATE":null,"RCS_SIZE":"LARGE","TIME_SYSTEM":"UTC","TLE_LINE2":"2 54059  53.2155 280.0272 0001116  95.1358 281.5474 15.08818037  7882","TLE_LINE1":"1 54059U 22136J   22341.08334491 -.00011692  00000-0 -71813-3 0  9995","BSTAR":"-0.00071813000000","ELEMENT_SET_NO":"999","PERIOD":"95.439","FILE":"3683372","REV_AT_EPOCH":"788","SITE":"AFETR","RA_OF_ASC_NODE":"280.0272","SEMIMAJOR_AXIS":"6917.948","MEAN_ANOMALY":"281.5474","MEAN_MOTION_DOT":"-0.00011692"}];
